NORAD_CAT_ID,OBJECT_NAME,OBJECT_TYPE,EPOCH,MEAN_MOTION,ECCENTRICITY,INCLINATION,RA_OF_ASC_NODE,ARG_OF_PERICENTER,MEAN_ANOMALY,BSTAR,MEAN_MOTION_DOT,MEAN_MOTION_DDOT,TLE_LINE0,TLE_LINE1,TLE_LINE2,SEMIMAJOR_AXIS,PERIOD,APOGEE,PERIGEE,DECAYED
51116.0,STARLINK-3243,PAYLOAD,2024-02-02 11:50:58,15.08841422,0.0001435,53.2172,128.6807,93.8519,266.2637,5.9026e-05,6.52e-06,0.0,0 STARLINK-3243,1 51116U 22005N   24033.49373007  .00000652  00000-0  59026-4 0  9997,2 51116  53.2172 128.6807 0001435  93.8519 266.2637 15.08841422113200,6917.876,95.437,540.734,538.748,0.0
51116.0,STARLINK-3243,PAYLOAD,2024-02-03 11:41:45,15.08837566,0.00014,53.2169,124.2197,90.5991,269.5161,4.368e-05,4.07e-06,0.0,0 STARLINK-3243,1 51116U 22005N   24034.48733441  .00000407  00000-0  43680-4 0  9996,2 51116  53.2169 124.2197 0001400  90.5991 269.5161 15.08837566114461,6917.888,95.438,540.721,538.784,0.0
51116.0,STARLINK-3243,PAYLOAD,2024-02-03 13:17:08,15.0884022,0.0001366,53.217,123.9254,83.0515,277.0633,6.2411e-05,7.05e-06,0.0,0 STARLINK-3243,1 51116U 22005N   24034.55357290  .00000705  00000-0  62411-4 0  9992,2 51116  53.2170 123.9254 0001366  83.0515 277.0633 15.08840220113360,6917.88,95.438,540.69,538.8,0.0
51116.0,STARLINK-3243,PAYLOAD,2024-02-03 14:52:31,15.0884195,0.0001445,53.2175,123.6263,92.1949,267.9209,7.655e-05,9.31e-06,0.0,0 STARLINK-3243,1 51116U 22005N   24034.61981091  .00000931  00000-0  76550-4 0  9991,2 51116  53.2175 123.6263 0001445  92.1949 267.9209 15.08841950113371,6917.874,95.437,540.739,538.74,0.0
51116.0,STARLINK-3243,PAYLOAD,2024-02-04 13:07:55,15.08839615,0.0001584,53.2173,119.4637,88.8873,271.23,4.6628e-05,4.54e-06,0.0,0 STARLINK-3243,1 51116U 22005N   24035.54717574  .00000454  00000-0  46628-4 0  9990,2 51116  53.2173 119.4637 0001584  88.8873 271.2300 15.08839615113510,6917.882,95.438,540.842,538.651,0.0
51116.0,STARLINK-3243,PAYLOAD,2024-02-05 12:58:42,15.08847067,0.0001595,53.2172,115.0032,82.1837,277.9336,8.4553e-05,1.058e-05,0.0,0 STARLINK-3243,1 51116U 22005N   24036.54077163  .00001058  00000-0  84553-4 0  9994,2 51116  53.2172 115.0032 0001595  82.1837 277.9336 15.08847067113667,6917.859,95.437,540.827,538.62,0.0
51116.0,STARLINK-3243,PAYLOAD,2024-02-06 04:52:34,15.0884259,0.0001519,53.2162,112.0288,84.0486,276.0679,8.0601e-05,9.95e-06,0.0,0 STARLINK-3243,1 51116U 22005N   24037.20317404  .00000995  00000-0  80601-4 0  9992,2 51116  53.2162 112.0288 0001519  84.0486 276.0679 15.08842590114873,6917.872,95.437,540.788,538.687,0.0
51116.0,STARLINK-3243,PAYLOAD,2024-02-06 11:14:06,15.088454,0.0001612,53.2161,110.8395,84.6688,275.4488,9.5854e-05,1.238e-05,0.0,0 STARLINK-3243,1 51116U 22005N   24037.46813172  .00001238  00000-0  95854-4 0  9990,2 51116  53.2161 110.8395 0001612  84.6688 275.4488 15.08845400113807,6917.864,95.437,540.844,538.614,0.0
51116.0,STARLINK-3243,PAYLOAD,2024-02-07 11:04:53,15.08844223,0.0001446,53.2174,106.3801,82.9602,277.1555,3.1786e-05,2.18e-06,0.0,0 STARLINK-3243,1 51116U 22005N   24038.46173257  .00000218  00000-0  31786-4 0  9995,2 51116  53.2174 106.3801 0001446  82.9602 277.1555 15.08844223115061,6917.867,95.437,540.733,538.732,0.0
51116.0,STARLINK-3243,PAYLOAD,2024-02-08 04:34:08,15.08838764,0.0001761,53.2178,103.1087,109.8467,250.2715,2.0724e-06,-2.55e-06,0.0,0 STARLINK-3243,1 51116U 22005N   24039.19037565 -.00000255  00000-0  20724-5 0  9990,2 51116  53.2178 103.1087 0001761 109.8467 250.2715 15.08838764115179,6917.884,95.438,540.967,538.531,0.0
51116.0,STARLINK-3243,PAYLOAD,2024-02-08 10:55:40,15.08843563,0.0001709,53.2173,101.9189,102.493,257.6253,-2.0604e-06,-3.21e-06,0.0,0 STARLINK-3243,1 51116U 22005N   24039.45533339 -.00000321  00000-0 -20604-5 0  9991,2 51116  53.2173 101.9189 0001709 102.4930 257.6253 15.08843563114102,6917.869,95.437,540.917,538.552,0.0
51116.0,STARLINK-3243,PAYLOAD,2024-02-09 10:46:27,15.0884493,0.0001968,53.2181,97.4592,107.5034,252.6173,-1.2482e-05,-4.87e-06,0.0,0 STARLINK-3243,1 51116U 22005N   24040.44893440 -.00000487  00000-0 -12482-4 0  9991,2 51116  53.2181  97.4592 0001968 107.5034 252.6173 15.08844930115360,6917.865,95.437,541.092,538.369,0.0
51116.0,STARLINK-3243,PAYLOAD,2024-02-10 10:37:15,15.08836088,0.0001531,53.2182,93.0,103.1174,256.9989,7.1025e-05,8.42e-06,0.0,0 STARLINK-3243,1 51116U 22005N   24041.44254143  .00000842  00000-0  71025-4 0  9994,2 51116  53.2182  93.0000 0001531 103.1174 256.9989 15.08836088115514,6917.892,95.438,540.816,538.698,0.0
51116.0,STARLINK-3243,PAYLOAD,2024-02-11 12:03:25,15.08847135,0.0001903,53.2186,88.238,94.6518,265.4692,3.5739e-05,2.81e-06,0.0,0 STARLINK-3243,1 51116U 22005N   24042.50237838  .00000281  00000-0  35739-4 0  9993,2 51116  53.2186  88.2380 0001903  94.6518 265.4692 15.08847135115672,6917.859,95.437,541.04,538.407,0.0
51116.0,STARLINK-3243,PAYLOAD,2024-02-12 10:18:49,15.08850792,0.0001852,53.2185,84.0719,73.125,286.9946,0.00011025,1.467e-05,0.0,0 STARLINK-3243,1 51116U 22005N   24043.42973446  .00001467  00000-0  11025-3 0  9995,2 51116  53.2185  84.0719 0001852  73.1250 286.9946 15.08850792114705,6917.847,95.437,540.994,538.431,0.0
51116.0,STARLINK-3243,PAYLOAD,2024-02-13 11:44:59,15.0884298,0.0001583,53.2184,79.315,94.8633,265.254,5.7189e-06,-1.97e-06,0.0,0 STARLINK-3243,1 51116U 22005N   24044.48958162 -.00000197  00000-0  57189-5 0  9993,2 51116  53.2184  79.3150 0001583  94.8633 265.2540 15.08842980115976,6917.871,95.437,540.831,538.641,0.0
51116.0,STARLINK-3243,PAYLOAD,2024-02-13 19:41:55,15.0884098,0.000159,53.2185,77.8275,97.135,262.9823,1.067e-05,-1.18e-06,0.0,0 STARLINK-3243,1 51116U 22005N   24044.82078279 -.00000118  00000-0  10670-4 0  9999,2 51116  53.2185  77.8275 0001590  97.1350 262.9823 15.08840980114917,6917.877,95.437,540.842,538.642,0.0
51116.0,STARLINK-3243,PAYLOAD,2024-02-14 11:35:45,15.08858089,0.0001674,53.2178,74.8525,106.6517,253.4659,2.6326e-05,1.31e-06,0.0,0 STARLINK-3243,1 51116U 22005N   24045.48316934  .00000131  00000-0  26326-4 0  9994,2 51116  53.2178  74.8525 0001674 106.6517 253.4659 15.08858089116124,6917.825,95.436,540.848,538.532,0.0
51116.0,STARLINK-3243,PAYLOAD,2024-02-15 06:40:25,15.08833444,0.0001603,53.2176,71.2844,102.6796,257.4375,5.4466e-05,5.79e-06,0.0,0 STARLINK-3243,1 51116U 22005N   24046.27806772  .00000579  00000-0  54466-4 0  9998,2 51116  53.2176  71.2844 0001603 102.6796 257.4375 15.08833444116244,6917.9,95.438,540.874,538.656,0.0
51116.0,STARLINK-3243,PAYLOAD,2024-02-16 06:31:12,15.08840814,0.0001588,53.2173,66.8258,98.8524,261.2648,4.9847e-05,5.05e-06,0.0,0 STARLINK-3243,1 51116U 22005N   24047.27166755  .00000505  00000-0  49847-4 0  9995,2 51116  53.2173  66.8258 0001588  98.8524 261.2648 15.08840814115285,6917.878,95.438,540.841,538.644,0.0
51116.0,STARLINK-3243,PAYLOAD,2024-02-17 01:35:50,15.08833816,0.0001554,53.217,63.2634,97.4255,262.6914,0.00010436,1.373e-05,0.0,0 STARLINK-3243,1 51116U 22005N   24048.06655373  .00001373  00000-0  10436-3 0  9997,2 51116  53.2170  63.2634 0001554  97.4255 262.6914 15.08833816116512,6917.899,95.438,540.839,538.689,0.0
51116.0,STARLINK-3243,PAYLOAD,2024-02-17 07:57:22,15.08834771,0.0001525,53.2175,62.0724,97.8761,262.2404,0.00012989,1.78e-05,0.0,0 STARLINK-3243,1 51116U 22005N   24048.33151463  .00001780  00000-0  12989-3 0  9995,2 51116  53.2175  62.0724 0001525  97.8761 262.2404 15.08834771115440,6917.896,95.438,540.816,538.706,0.0
51116.0,STARLINK-3243,PAYLOAD,2024-02-17 17:29:41,15.08834841,0.0001527,53.217,60.2874,95.7633,264.3533,0.00011468,1.537e-05,0.0,0 STARLINK-3243,1 51116U 22005N   24048.72895642  .00001537  00000-0  11468-3 0  9993,2 51116  53.2170  60.2874 0001527  95.7633 264.3533 15.08834841115509,6917.896,95.438,540.818,538.705,0.0
51116.0,STARLINK-3243,PAYLOAD,2024-02-18 07:48:09,15.08844262,0.0001617,53.2176,57.6123,103.2873,256.83,0.00015943,2.251e-05,0.0,0 STARLINK-3243,1 51116U 22005N   24049.32511115  .00002251  00000-0  15943-3 0  9996,2 51116  53.2176  57.6123 0001617 103.2873 256.8300 15.08844262116702,6917.867,95.437,540.851,538.614,0.0
51116.0,STARLINK-3243,PAYLOAD,2024-02-18 17:20:28,15.08843547,0.0001619,53.2168,55.8277,104.6945,255.4226,0.00019328,2.79e-05,0.0,0 STARLINK-3243,1 51116U 22005N   24049.72255112  .00002790  00000-0  19328-3 0  9991,2 51116  53.2168  55.8277 0001619 104.6945 255.4226 15.08843547115650,6917.87,95.437,540.855,538.615,0.0
51116.0,STARLINK-3243,PAYLOAD,2024-02-19 04:28:10,15.08836515,0.0001732,53.2179,53.7467,94.935,265.184,1.3146e-05,-7.9e-07,0.0,0 STARLINK-3243,1 51116U 22005N   24050.18623550 -.00000079  00000-0  13146-4 0  9990,2 51116  53.2179  53.7467 0001732  94.9350 265.1840 15.08836515116835,6917.891,95.438,540.954,538.558,0.0
51116.0,STARLINK-3243,PAYLOAD,2024-02-19 09:14:20,15.08839726,0.0001777,53.22,52.8499,87.7318,272.3878,9.5334e-05,1.229e-05,0.0,0 STARLINK-3243,1 51116U 22005N   24050.38495543  .00001229  00000-0  95334-4 0  9997,2 51116  53.2200  52.8499 0001777  87.7318 272.3878 15.08839726115756,6917.881,95.438,540.976,538.517,0.0
51116.0,STARLINK-3243,PAYLOAD,2024-02-19 17:11:16,15.08837043,0.0001676,53.2185,51.3638,84.7068,275.4116,-4.1911e-05,-9.55e-06,0.0,0 STARLINK-3243,1 51116U 22005N   24050.71616065 -.00000955  00000-0 -41911-4 0  9997,2 51116  53.2185  51.3638 0001676  84.7068 275.4116 15.08837043115809,6917.889,95.438,540.914,538.595,0.0
51116.0,STARLINK-3243,PAYLOAD,2024-02-20 09:05:07,15.08841861,0.0001542,53.2178,48.392,90.7396,269.3773,3.9555e-06,-2.25e-06,0.0,0 STARLINK-3243,1 51116U 22005N   24051.37855809 -.00000225  00000-0  39555-5 0  9992,2 51116  53.2178  48.3920 0001542  90.7396 269.3773 15.08841861117013,6917.875,95.437,540.806,538.673,0.0
51116.0,STARLINK-3243,PAYLOAD,2024-02-20 17:02:02,15.08843353,0.0001484,53.2182,46.9043,86.5322,273.584,3.4863e-05,2.67e-06,0.0,0 STARLINK-3243,1 51116U 22005N   24051.70975531  .00000267  00000-0  34863-4 0  9995,2 51116  53.2182  46.9043 0001484  86.5322 273.5840 15.08843353115956,6917.87,95.437,540.762,538.709,0.0
